{
    "links": {
        "self": "http://www.neowsapp.com/rest/v1/neo/3801936?api_key=iIulBulltgU6a56xZRHN4H3l9WmuAYTsLGpBGhQ2"
    },
    "id": "3801936",
    "neo_reference_id": "3801936",
    "name": "(2018 EH4)",
    "designation": "2018 EH4",
    "nasa_jpl_url": "http://ssd.jpl.nasa.gov/sbdb.cgi?sstr=3801936",
    "absolute_magnitude_h": 21.5,
    "estimated_diameter": {
        "kilometers": {
            "estimated_diameter_min": 0.1332155667,
            "estimated_diameter_max": 0.2978790628
        },
        "meters": {
            "estimated_diameter_min": 133.2155666981,
            "estimated_diameter_max": 297.8790627982
        },
        "miles": {
            "estimated_diameter_min": 0.0827762899,
            "estimated_diameter_max": 0.1850934111
        },
        "feet": {
            "estimated_diameter_min": 437.0589598459,
            "estimated_diameter_max": 977.2935443908
        }
    },
    "is_potentially_hazardous_asteroid": true,
    "close_approach_data": [
        {
            "close_approach_date": "2015-03-05",
            "close_approach_date_full": "2015-Mar-05 09:43",
            "epoch_date_close_approach": 1425548580000,
            "relative_velocity": {
                "kilometers_per_second": "26.6698325799",
                "kilometers_per_hour": "96011.397287658",
                "miles_per_hour": "59657.7484979895"
            },
            "miss_distance": {
                "astronomical": "0.4108653857",
                "lunar": "159.8266350373",
                "kilometers": "61464586.557448459",
                "miles": "38192323.0852443742"
            },
            "orbiting_body": "Earth"
        },
        {
            "close_approach_date": "2018-02-18",
            "close_approach_date_full": "2018-Feb-18 06:56",
            "epoch_date_close_approach": 1518936960000,
            "relative_velocity": {
                "kilometers_per_second": "18.5412813553",
                "kilometers_per_hour": "66748.6128790591",
                "miles_per_hour": "41474.9922636576"
            },
            "miss_distance": {
                "astronomical": "0.1510275722",
                "lunar": "58.7497255858",
                "kilometers": "22593403.112391214",
                "miles": "14038889.7020741932"
            },
            "orbiting_body": "Earth"
        }
    ],
    "orbital_data": {
        "orbit_id": "3",
        "orbit_determination_date": "2018-03-20 06:51:39",
        "first_observation_date": "2018-03-02",
        "last_observation_date": "2018-03-20",
        "data_arc_in_days": 18,
        "observations_used": 61,
        "orbit_uncertainty": "8",
        "minimum_orbit_intersection": ".0223746",
        "jupiter_tisserand_invariant": "3.513",
        "epoch_osculation": "2458189.5",
        "eccentricity": ".6128873294662254",
        "semi_major_axis": "2.061169319751567",
        "inclination": "6.204192132746093",
        "ascending_node_longitude": "3.562823741369667",
        "orbital_period": "1080.858720870794",
        "perihelion_distance": ".7979047597913128",
        "perihelion_argument": "74.32197826671565",
        "aphelion_distance": "3.324433879711821",
        "perihelion_time": "2458124.798892713650",
        "mean_anomaly": "21.54990117887052",
        "mean_motion": ".333068506594429",
        "equinox": "J2000",
        "orbit_class": {
            "orbit_class_type": "APO",
            "orbit_class_description": "Near-Earth asteroid orbits which cross the Earth’s orbit similar to that of 1862 Apollo",
            "orbit_class_range": "a (semi-major axis) > 1.0 AU; q (perihelion) < 1.017 AU"
        }
    },
    "is_sentry_object": false
}